{
    "links": {
        "self": "http://www.neowsapp.com/rest/v1/neo/3699482?api_key=iIulBulltgU6a56xZRHN4H3l9WmuAYTsLGpBGhQ2"
    },
    "id": "3699482",
    "neo_reference_id": "3699482",
    "name": "(2014 WF364)",
    "designation": "2014 WF364",
    "nasa_jpl_url": "http://ssd.jpl.nasa.gov/sbdb.cgi?sstr=3699482",
    "absolute_magnitude_h": 25.7,
    "estimated_diameter": {
        "kilometers": {
            "estimated_diameter_min": 0.0192555078,
            "estimated_diameter_max": 0.0430566244
        },
        "meters": {
            "estimated_diameter_min": 19.2555078188,
            "estimated_diameter_max": 43.0566244241
        },
        "miles": {
            "estimated_diameter_min": 0.0119648141,
            "estimated_diameter_max": 0.0267541378
        },
        "feet": {
            "estimated_diameter_min": 63.1742402722,
            "estimated_diameter_max": 141.2618956756
        }
    },
    "is_potentially_hazardous_asteroid": false,
    "close_approach_data": [
        {
            "close_approach_date": "2014-11-20",
            "close_approach_date_full": "2014-Nov-20 02:35",
            "epoch_date_close_approach": 1416450900000,
            "relative_velocity": {
                "kilometers_per_second": "6.8859760644",
                "kilometers_per_hour": "24789.5138318439",
                "miles_per_hour": "15403.2398584588"
            },
            "miss_distance": {
                "astronomical": "0.0818390207",
                "lunar": "31.8353790523",
                "kilometers": "12242943.179605909",
                "miles": "7607412.1314191842"
            },
            "orbiting_body": "Earth"
        }
    ],
    "orbital_data": {
        "orbit_id": "6",
        "orbit_determination_date": "2017-04-06 08:37:07",
        "first_observation_date": "2014-11-27",
        "last_observation_date": "2014-12-10",
        "data_arc_in_days": 13,
        "observations_used": 23,
        "orbit_uncertainty": "9",
        "minimum_orbit_intersection": ".0704729",
        "jupiter_tisserand_invariant": "3.133",
        "epoch_osculation": "2456990.5",
        "eccentricity": ".5936340678385648",
        "semi_major_axis": "2.610192291593302",
        "inclination": ".3169745863203485",
        "ascending_node_longitude": "48.15934645373421",
        "orbital_period": "1540.306616759884",
        "perihelion_distance": "1.060693223693905",
        "perihelion_argument": "1.565814424989397",
        "aphelion_distance": "4.1596913594927",
        "perihelion_time": "2456976.449422223157",
        "mean_anomaly": "3.283896819390211",
        "mean_motion": ".2337196997551559",
        "equinox": "J2000",
        "orbit_class": {
            "orbit_class_type": "AMO",
            "orbit_class_description": "Near-Earth asteroid orbits similar to that of 1221 Amor",
            "orbit_class_range": "1.017 AU < q (perihelion) < 1.3 AU"
        }
    },
    "is_sentry_object": false
}